ONEWEB-0704             
1 61609U 24188R   26063.45966536 -.00000466  00000+0 -13724-2 0  9992
2 61609  87.8783  57.0930 0002852  89.3763 270.7691 13.10372019 69578
ONEWEB-0705             
1 61610U 24188S   26063.46463920 -.00000562  00000+0 -16461-2 0  9992
2 61610  87.8774  57.1058 0002666  67.3275 292.8134 13.10372344 61748
ONEWEB-0706             
1 61611U 24188T   26063.44970774 -.00000026  00000+0 -11053-3 0  9999
2 61611  87.8760  57.1216 0002470  84.2385 275.9024 13.10369822 69669
ONEWEB-0707             
1 61612U 24188U   26063.45634120 -.00000357  00000+0 -10585-2 0  9998
2 61612  87.8773  57.1070 0002458  85.9935 274.1473 13.10369779 69601
ONEWEB-0708             
1 61613U 24188V   26063.47459388 -.00000499  00000+0 -14645-2 0  9990
2 61613  87.8768  57.1319 0001981  70.2608 289.8733 13.10375335 69580
