[{"OBJECT_NAME":"ONEWEB-0704","OBJECT_ID":"2024-188R","EPOCH":"2026-03-04T11:01:55.087104","MEAN_MOTION":13.10372019,"ECCENTRICITY":0.0002852,"INCLINATION":87.8783,"RA_OF_ASC_NODE":57.093,"ARG_OF_PERICENTER":89.3763,"MEAN_ANOMALY":270.7691,"EPHEMERIS_TYPE":0,"CLASSIFICATION_TYPE":"U","NORAD_CAT_ID":61609,"ELEMENT_SET_NO":999,"REV_AT_EPOCH":6957,"BSTAR":-0.0013724,"MEAN_MOTION_DOT":-4.66e-6,"MEAN_MOTION_DDOT":0},{"OBJECT_NAME":"ONEWEB-0705","OBJECT_ID":"2024-188S","EPOCH":"2026-03-04T11:09:04.826880","MEAN_MOTION":13.10372344,"ECCENTRICITY":0.0002666,"INCLINATION":87.8774,"RA_OF_ASC_NODE":57.1058,"ARG_OF_PERICENTER":67.3275,"MEAN_ANOMALY":292.8134,"EPHEMERIS_TYPE":0,"CLASSIFICATION_TYPE":"U","NORAD_CAT_ID":61610,"ELEMENT_SET_NO":999,"REV_AT_EPOCH":6174,"BSTAR":-0.0016461,"MEAN_MOTION_DOT":-5.62e-6,"MEAN_MOTION_DDOT":0},{"OBJECT_NAME":"ONEWEB-0706","OBJECT_ID":"2024-188T","EPOCH":"2026-03-04T10:47:34.748736","MEAN_MOTION":13.10369822,"ECCENTRICITY":0.000247,"INCLINATION":87.876,"RA_OF_ASC_NODE":57.1216,"ARG_OF_PERICENTER":84.2385,"MEAN_ANOMALY":275.9024,"EPHEMERIS_TYPE":0,"CLASSIFICATION_TYPE":"U","NORAD_CAT_ID":61611,"ELEMENT_SET_NO":999,"REV_AT_EPOCH":6966,"BSTAR":-0.00011053,"MEAN_MOTION_DOT":-2.6e-7,"MEAN_MOTION_DDOT":0},{"OBJECT_NAME":"ONEWEB-0707","OBJECT_ID":"2024-188U","EPOCH":"2026-03-04T10:57:07.879680","MEAN_MOTION":13.10369779,"ECCENTRICITY":0.0002458,"INCLINATION":87.8773,"RA_OF_ASC_NODE":57.107,"ARG_OF_PERICENTER":85.9935,"MEAN_ANOMALY":274.1473,"EPHEMERIS_TYPE":0,"CLASSIFICATION_TYPE":"U","NORAD_CAT_ID":61612,"ELEMENT_SET_NO":999,"REV_AT_EPOCH":6960,"BSTAR":-0.0010585,"MEAN_MOTION_DOT":-3.57e-6,"MEAN_MOTION_DDOT":0},{"OBJECT_NAME":"ONEWEB-0708","OBJECT_ID":"2024-188V","EPOCH":"2026-03-04T11:23:24.911232","MEAN_MOTION":13.10375335,"ECCENTRICITY":0.0001981,"INCLINATION":87.8768,"RA_OF_ASC_NODE":57.1319,"ARG_OF_PERICENTER":70.2608,"MEAN_ANOMALY":289.8733,"EPHEMERIS_TYPE":0,"CLASSIFICATION_TYPE":"U","NORAD_CAT_ID":61613,"ELEMENT_SET_NO":999,"REV_AT_EPOCH":6958,"BSTAR":-0.0014645,"MEAN_MOTION_DOT":-4.99e-6,"MEAN_MOTION_DDOT":0}]
